{
  "type": "FeatureCollection",
  "features": [
    {
      "type": "Feature",
      "properties": {
        "norad_id": 58647,
        "name": "TIANMU-1 13",
        "group": "weather",
        "lat": 81.90589069056999,
        "lon": -94.7567030666477,
        "alt_km": 486.17691994710185,
        "timestamp": "2025-12-26T11:25:44.866514+00:00",
        "meta_object_name": "TIANMU-1 13",
        "meta_object_id": "2023-205C",
        "meta_epoch": "2025-12-26T04:43:13.235808",
        "meta_mean_motion": 15.24691114,
        "meta_eccentricity": 0.0006753,
        "meta_inclination": 97.3615,
        "meta_ra_of_asc_node": 19.5913,
        "meta_arg_of_pericenter": 208.8272,
        "meta_mean_anomaly": 151.2593,
        "meta_ephemeris_type": 0,
        "meta_classification_type": "U",
        "meta_norad_cat_id": 58647,
        "meta_element_set_no": 999,
        "meta_rev_at_epoch": 11112,
        "meta_bstar": 0.00026993,
        "meta_mean_motion_dot": 6.607e-05,
        "meta_mean_motion_ddot": 0,
        "tle_line1": "1 58647U 23205C   25360.19668097  .00006607  00000+0  26993-3 0  9994",
        "tle_line2": "2 58647  97.3615  19.5913 0006753 208.8272 151.2593 15.24691114111127"
      },
      "geometry": {
        "type": "Point",
        "coordinates": [
          -94.7567030666477,
          81.90589069056999
        ]
      }
    },
    {
      "type": "Feature",
      "properties": {
        "norad_id": 58648,
        "name": "TIANMU-1 14",
        "group": "weather",
        "lat": -3.6902397382941916,
        "lon": -161.27529816378058,
        "alt_km": 490.9018621648356,
        "timestamp": "2025-12-26T11:25:44.866523+00:00",
        "meta_object_name": "TIANMU-1 14",
        "meta_object_id": "2023-205D",
        "meta_epoch": "2025-12-26T04:19:31.823616",
        "meta_mean_motion": 15.24673733,
        "meta_eccentricity": 0.0007446,
        "meta_inclination": 97.3547,
        "meta_ra_of_asc_node": 18.9114,
        "meta_arg_of_pericenter": 214.9338,
        "meta_mean_anomaly": 145.1412,
        "meta_ephemeris_type": 0,
        "meta_classification_type": "U",
        "meta_norad_cat_id": 58648,
        "meta_element_set_no": 999,
        "meta_rev_at_epoch": 11112,
        "meta_bstar": 0.00025222,
        "meta_mean_motion_dot": 6.166e-05,
        "meta_mean_motion_ddot": 0,
        "tle_line1": "1 58648U 23205D   25360.18022944  .00006166  00000+0  25222-3 0  9993",
        "tle_line2": "2 58648  97.3547  18.9114 0007446 214.9338 145.1412 15.24673733111128"
      },
      "geometry": {
        "type": "Point",
        "coordinates": [
          -161.27529816378058,
          -3.6902397382941916
        ]
      }
    },
    {
      "type": "Feature",
      "properties": {
        "norad_id": 58660,
        "name": "TIANMU-1 19",
        "group": "weather",
        "lat": -64.61078818740408,
        "lon": -84.49132035609,
        "alt_km": 486.6032218346745,
        "timestamp": "2025-12-26T11:25:44.866532+00:00",
        "meta_object_name": "TIANMU-1 19",
        "meta_object_id": "2023-208A",
        "meta_epoch": "2025-12-26T04:04:16.495968",
        "meta_mean_motion": 15.28094594,
        "meta_eccentricity": 0.0004873,
        "meta_inclination": 97.4386,
        "meta_ra_of_asc_node": 111.182,
        "meta_arg_of_pericenter": 196.2996,
        "meta_mean_anomaly": 163.8087,
        "meta_ephemeris_type": 0,
        "meta_classification_type": "U",
        "meta_norad_cat_id": 58660,
        "meta_element_set_no": 999,
        "meta_rev_at_epoch": 11087,
        "meta_bstar": 0.00035539,
        "meta_mean_motion_dot": 9.667e-05,
        "meta_mean_motion_ddot": 0,
        "tle_line1": "1 58660U 23208A   25360.16963537  .00009667  00000+0  35539-3 0  9991",
        "tle_line2": "2 58660  97.4386 111.1820 0004873 196.2996 163.8087 15.28094594110879"
      },
      "geometry": {
        "type": "Point",
        "coordinates": [
          -84.49132035609,
          -64.61078818740408
        ]
      }
    },
    {
      "type": "Feature",
      "properties": {
        "norad_id": 58661,
        "name": "TIANMU-1 20",
        "group": "weather",
        "lat": 18.3030395869484,
        "lon": 109.47418778292298,
        "alt_km": 483.0105002898508,
        "timestamp": "2025-12-26T11:25:44.866542+00:00",
        "meta_object_name": "TIANMU-1 20",
        "meta_object_id": "2023-208B",
        "meta_epoch": "2025-12-26T03:29:48.027264",
        "meta_mean_motion": 15.29283566,
        "meta_eccentricity": 0.0006896,
        "meta_inclination": 97.4324,
        "meta_ra_of_asc_node": 111.6188,
        "meta_arg_of_pericenter": 210.8443,
        "meta_mean_anomaly": 149.2393,
        "meta_ephemeris_type": 0,
        "meta_classification_type": "U",
        "meta_norad_cat_id": 58661,
        "meta_element_set_no": 999,
        "meta_rev_at_epoch": 11094,
        "meta_bstar": 0.00035253,
        "meta_mean_motion_dot": 9.948e-05,
        "meta_mean_motion_ddot": 0,
        "tle_line1": "1 58661U 23208B   25360.14569476  .00009948  00000+0  35253-3 0  9999",
        "tle_line2": "2 58661  97.4324 111.6188 0006896 210.8443 149.2393 15.29283566110947"
      },
      "geometry": {
        "type": "Point",
        "coordinates": [
          109.47418778292298,
          18.3030395869484
        ]
      }
    },
    {
      "type": "Feature",
      "properties": {
        "norad_id": 58662,
        "name": "TIANMU-1 21",
        "group": "weather",
        "lat": 31.35013809732559,
        "lon": -61.51591100371708,
        "alt_km": 466.1307586123057,
        "timestamp": "2025-12-26T11:25:44.866551+00:00",
        "meta_object_name": "TIANMU-1 21",
        "meta_object_id": "2023-208C",
        "meta_epoch": "2025-12-26T04:30:45.486144",
        "meta_mean_motion": 15.31839301,
        "meta_eccentricity": 0.0006517,
        "meta_inclination": 97.4373,
        "meta_ra_of_asc_node": 113.6303,
        "meta_arg_of_pericenter": 204.9579,
        "meta_mean_anomaly": 155.1348,
        "meta_ephemeris_type": 0,
        "meta_classification_type": "U",
        "meta_norad_cat_id": 58662,
        "meta_element_set_no": 999,
        "meta_rev_at_epoch": 11105,
        "meta_bstar": 0.00038113,
        "meta_mean_motion_dot": 0.00011651,
        "meta_mean_motion_ddot": 0,
        "tle_line1": "1 58662U 23208C   25360.18802646  .00011651  00000+0  38113-3 0  9995",
        "tle_line2": "2 58662  97.4373 113.6303 0006517 204.9579 155.1348 15.31839301111053"
      },
      "geometry": {
        "type": "Point",
        "coordinates": [
          -61.51591100371708,
          31.35013809732559
        ]
      }
    },
    {
      "type": "Feature",
      "properties": {
        "norad_id": 58663,
        "name": "TIANMU-1 22",
        "group": "weather",
        "lat": -53.622639499471966,
        "lon": -78.67460915554466,
        "alt_km": 487.31870969991724,
        "timestamp": "2025-12-26T11:25:44.866560+00:00",
        "meta_object_name": "TIANMU-1 22",
        "meta_object_id": "2023-208D",
        "meta_epoch": "2025-12-26T04:07:10.344000",
        "meta_mean_motion": 15.27830733,
        "meta_eccentricity": 0.000305,
        "meta_inclination": 97.438,
        "meta_ra_of_asc_node": 111.2368,
        "meta_arg_of_pericenter": 219.162,
        "meta_mean_anomaly": 140.9399,
        "meta_ephemeris_type": 0,
        "meta_classification_type": "U",
        "meta_norad_cat_id": 58663,
        "meta_element_set_no": 999,
        "meta_rev_at_epoch": 11088,
        "meta_bstar": 0.00033783,
        "meta_mean_motion_dot": 9.109e-05,
        "meta_mean_motion_ddot": 0,
        "tle_line1": "1 58663U 23208D   25360.17164750  .00009109  00000+0  33783-3 0  9995",
        "tle_line2": "2 58663  97.4380 111.2368 0003050 219.1620 140.9399 15.27830733110884"
      },
      "geometry": {
        "type": "Point",
        "coordinates": [
          -78.67460915554466,
          -53.622639499471966
        ]
      }
    },
    {
      "type": "Feature",
      "properties": {
        "norad_id": 58700,
        "name": "TIANMU-1 15",
        "group": "weather",
        "lat": -24.700257143121817,
        "lon": -1.5625421263404826,
        "alt_km": 493.9460049326799,
        "timestamp": "2025-12-26T11:25:44.866569+00:00",
        "meta_object_name": "TIANMU-1 15",
        "meta_object_id": "2024-004A",
        "meta_epoch": "2025-12-26T04:13:56.316864",
        "meta_mean_motion": 15.24584986,
        "meta_eccentricity": 0.0006105,
        "meta_inclination": 97.4631,
        "meta_ra_of_asc_node": 181.5955,
        "meta_arg_of_pericenter": 232.9469,
        "meta_mean_anomaly": 127.1211,
        "meta_ephemeris_type": 0,
        "meta_classification_type": "U",
        "meta_norad_cat_id": 58700,
        "meta_element_set_no": 999,
        "meta_rev_at_epoch": 10939,
        "meta_bstar": 0.00029524,
        "meta_mean_motion_dot": 7.209e-05,
        "meta_mean_motion_ddot": 0,
        "tle_line1": "1 58700U 24004A   25360.17634626  .00007209  00000+0  29524-3 0  9993",
        "tle_line2": "2 58700  97.4631 181.5955 0006105 232.9469 127.1211 15.24584986109392"
      },
      "geometry": {
        "type": "Point",
        "coordinates": [
          -1.5625421263404826,
          -24.700257143121817
        ]
      }
    }
  ]
}